Gym Name,Address,Area,City,State,Phone Number,Timings
Talwalkars,"Navrangpura, Ahmedabad, Gujarat",Navrangpura,Ahmedabad,Gujarat,N/A,N/A
Pro Fitness Naroda,"Naroda, Ahmedabad, Gujarat",Naroda,Ahmedabad,Gujarat,N/A,N/A
Municipal Gym,"Odhav, Ahmedabad, Gujarat",Odhav,Ahmedabad,Gujarat,N/A,N/A
Herbalife Distributor,"Chandkheda, Ahmedabad, Gujarat",Chandkheda,Ahmedabad,Gujarat,N/A,N/A
Yhai Ahmedabad,"Ellis Bridge, Ahmedabad, Gujarat",Ellis Bridge,Ahmedabad,Gujarat,N/A,N/A
C.N Ethletic Acadamy,"Ellis Bridge, Ahmedabad, Gujarat",Ellis Bridge,Ahmedabad,Gujarat,N/A,N/A
Easy Burn,"Ellis Bridge, Ahmedabad, Gujarat",Ellis Bridge,Ahmedabad,Gujarat,N/A,N/A
B1 Crossfit,"Ellis Bridge, Ahmedabad, Gujarat",Ellis Bridge,Ahmedabad,Gujarat,N/A,N/A
Namah Merchandise Private Limited,"Ellis Bridge, Ahmedabad, Gujarat",Ellis Bridge,Ahmedabad,Gujarat,N/A,N/A
Sahil Davda,"Ellis Bridge, Ahmedabad, Gujarat",Ellis Bridge,Ahmedabad,Gujarat,N/A,N/A
U C O Bank Regional Training Centre,"Khanpur, Ahmedabad, Gujarat",Khanpur,Ahmedabad,Gujarat,N/A,N/A
Yhai,"Lal Darwaja, Ahmedabad, Gujarat",Lal Darwaja,Ahmedabad,Gujarat,N/A,N/A
Anytime Fitness,"Lal Darwaja, Ahmedabad, Gujarat",Lal Darwaja,Ahmedabad,Gujarat,N/A,N/A
Vo2 + Fitness,"Khanpur, Ahmedabad, Gujarat",Khanpur,Ahmedabad,Gujarat,N/A,N/A
Mavericks Club,"Paldi, Ahmedabad, Gujarat",Paldi,Ahmedabad,Gujarat,N/A,N/A
Shivhari Astro - Reiki Centre,"Ellis Bridge, Ahmedabad, Gujarat",Ellis Bridge,Ahmedabad,Gujarat,N/A,N/A
Suraksha Maharaja,"C G Road, Ahmedabad, Gujarat",C G Road,Ahmedabad,Gujarat,N/A,N/A
Ellisbridge Arogya Samiti,"Ellis Bridge, Ahmedabad, Gujarat",Ellis Bridge,Ahmedabad,Gujarat,N/A,N/A
Vasant Vyaym Shala,"Lal Darwaja, Ahmedabad, Gujarat",Lal Darwaja,Ahmedabad,Gujarat,N/A,N/A
GROW Center,"Lal Darwaja, Ahmedabad, Gujarat",Lal Darwaja,Ahmedabad,Gujarat,N/A,N/A
Pro Fitness Ellis Bridge,"Ellis Bridge, Ahmedabad, Gujarat",Ellis Bridge,Ahmedabad,Gujarat,N/A,N/A
Parsana Gym,"Ellis Bridge, Ahmedabad, Gujarat",Ellis Bridge,Ahmedabad,Gujarat,N/A,N/A
Parsana Fitness & Gym,"Lal Darwaja, Ahmedabad, Gujarat",Lal Darwaja,Ahmedabad,Gujarat,N/A,N/A
RIYAZ BAG,"Lal Darwaja, Ahmedabad, Gujarat",Lal Darwaja,Ahmedabad,Gujarat,N/A,N/A
Vr Fitness Gym,"Paldi, Ahmedabad, Gujarat",Paldi,Ahmedabad,Gujarat,N/A,N/A
Charyana Fitness Gym,"Lal Darwaja, Ahmedabad, Gujarat",Lal Darwaja,Ahmedabad,Gujarat,N/A,N/A
Fitness Solutions,"Lal Darwaja, Ahmedabad, Gujarat",Lal Darwaja,Ahmedabad,Gujarat,N/A,N/A
Body Challenge Health Club,"Lal Darwaja, Ahmedabad, Gujarat",Lal Darwaja,Ahmedabad,Gujarat,N/A,N/A
Y.M.Fitness Studio,"Lal Darwaja, Ahmedabad, Gujarat",Lal Darwaja,Ahmedabad,Gujarat,N/A,N/A
Sfw The Gym Paldi,"Paldi, Ahmedabad, Gujarat",Paldi,Ahmedabad,Gujarat,N/A,N/A
Ym Fitness Studio,"Lal Darwaja, Ahmedabad, Gujarat",Lal Darwaja,Ahmedabad,Gujarat,N/A,N/A
Body Care Gym & Health Center,"Gheekanta, Ahmedabad, Gujarat",Gheekanta,Ahmedabad,Gujarat,N/A,N/A
Herbalife Wellness Coach,"Navrangpura, Ahmedabad, Gujarat",Navrangpura,Ahmedabad,Gujarat,N/A,N/A
Silverline Surgical,"Lal Darwaja, Ahmedabad, Gujarat",Lal Darwaja,Ahmedabad,Gujarat,N/A,N/A
Sports Plaza,"Patthar Kuva, Ahmedabad, Gujarat",Patthar Kuva,Ahmedabad,Gujarat,N/A,N/A
The Fitt Wave,"C G Road, Ahmedabad, Gujarat",C G Road,Ahmedabad,Gujarat,N/A,N/A
Parsi Gymkhana,"Lal Darwaja, Ahmedabad, Gujarat",Lal Darwaja,Ahmedabad,Gujarat,N/A,N/A
The Fitness Culture,"Ambavadi, Ahmedabad, Gujarat",Ambavadi,Ahmedabad,Gujarat,N/A,N/A
Ptfinder,"Bhadra, Ahmedabad, Gujarat",Bhadra,Ahmedabad,Gujarat,N/A,N/A
Central Govt Health Scheme,"Navrangpura, Ahmedabad, Gujarat",Navrangpura,Ahmedabad,Gujarat,N/A,N/A
Revo International Llp,"Mithakhali, Ahmedabad, Gujarat",Mithakhali,Ahmedabad,Gujarat,N/A,N/A
Optimus Health And Fitness,"Paldi, Ahmedabad, Gujarat",Paldi,Ahmedabad,Gujarat,N/A,N/A
Saga Fitness,"Ambavadi, Ahmedabad, Gujarat",Ambavadi,Ahmedabad,Gujarat,N/A,N/A
Fitness Factory Gym,"Gheekanta, Ahmedabad, Gujarat",Gheekanta,Ahmedabad,Gujarat,N/A,N/A
Stanmark Healthcare Private Limited,"C G Road, Ahmedabad, Gujarat",C G Road,Ahmedabad,Gujarat,N/A,N/A
Fusion,"C G Road, Ahmedabad, Gujarat",C G Road,Ahmedabad,Gujarat,N/A,N/A
Aashus Wellness,"Navrangpura, Ahmedabad, Gujarat",Navrangpura,Ahmedabad,Gujarat,N/A,N/A
Careerxone.Com,"C G Road, Ahmedabad, Gujarat",C G Road,Ahmedabad,Gujarat,N/A,N/A
Kfa Fitness Studio,"Paldi, Ahmedabad, Gujarat",Paldi,Ahmedabad,Gujarat,N/A,N/A
Proline Fitness,"C G Road, Ahmedabad, Gujarat",C G Road,Ahmedabad,Gujarat,N/A,N/A
Black Rhino Fitness,"Paldi, Ahmedabad, Gujarat",Paldi,Ahmedabad,Gujarat,N/A,N/A
Yogi Fitness Zone And Gym,"Paldi, Ahmedabad, Gujarat",Paldi,Ahmedabad,Gujarat,N/A,N/A
True Fitness Gym,"Patthar Kuva, Ahmedabad, Gujarat",Patthar Kuva,Ahmedabad,Gujarat,N/A,N/A
Star Fitness Point,"Ambavadi, Ahmedabad, Gujarat",Ambavadi,Ahmedabad,Gujarat,N/A,N/A
Shri Rang Milan Kala Mandal,"Shahpur, Ahmedabad, Gujarat",Shahpur,Ahmedabad,Gujarat,N/A,N/A
It Figures/Figrate,"Shahpur, Ahmedabad, Gujarat",Shahpur,Ahmedabad,Gujarat,N/A,N/A
Herbalife Wellness Coach For Weight Losss Weght Gain And Mainten For Health,"Behrampura, Ahmedabad, Gujarat",Behrampura,Ahmedabad,Gujarat,N/A,N/A
Vidyadharbhai Vyas,"Paldi, Ahmedabad, Gujarat",Paldi,Ahmedabad,Gujarat,N/A,N/A
Priyal Health Care,"Paldi, Ahmedabad, Gujarat",Paldi,Ahmedabad,Gujarat,N/A,N/A
Re Create,"Paldi, Ahmedabad, Gujarat",Paldi,Ahmedabad,Gujarat,N/A,N/A
Figuratte Fitness Centre,"Navrangpura, Ahmedabad, Gujarat",Navrangpura,Ahmedabad,Gujarat,N/A,N/A
Integrated Health Clinic,"Navrangpura, Ahmedabad, Gujarat",Navrangpura,Ahmedabad,Gujarat,N/A,N/A
Happiestfitness.Com,"Ambavadi, Ahmedabad, Gujarat",Ambavadi,Ahmedabad,Gujarat,N/A,N/A
Vipassana Ahmedabad Office,"Navrangpura, Ahmedabad, Gujarat",Navrangpura,Ahmedabad,Gujarat,N/A,N/A
Rita's Pregnancy 101,"Paldi, Ahmedabad, Gujarat",Paldi,Ahmedabad,Gujarat,N/A,N/A
Vanitarama Health Plus,"Navrangpura, Ahmedabad, Gujarat",Navrangpura,Ahmedabad,Gujarat,N/A,N/A
Vanitarama Healthplus,"Navrangpura, Ahmedabad, Gujarat",Navrangpura,Ahmedabad,Gujarat,N/A,N/A
Government Gym,"C G Road, Ahmedabad, Gujarat",C G Road,Ahmedabad,Gujarat,N/A,N/A
Nishka Apartement,"Gulbai Tekra, Ahmedabad, Gujarat",Gulbai Tekra,Ahmedabad,Gujarat,N/A,N/A
Ezeeslim Fitness Health Centre,"Gulbai Tekra, Ahmedabad, Gujarat",Gulbai Tekra,Ahmedabad,Gujarat,N/A,N/A
Kalalayam Nartan Academy,"Sharda Nagar, Ahmedabad, Gujarat",Sharda Nagar,Ahmedabad,Gujarat,N/A,N/A
Body Carpenter Gym,"Navrangpura, Ahmedabad, Gujarat",Navrangpura,Ahmedabad,Gujarat,N/A,N/A
The Pilates Studio,"Navrangpura, Ahmedabad, Gujarat",Navrangpura,Ahmedabad,Gujarat,N/A,N/A
Afa Gym,"Shahpur, Ahmedabad, Gujarat",Shahpur,Ahmedabad,Gujarat,N/A,N/A
Ujas Apartment,"Paldi, Ahmedabad, Gujarat",Paldi,Ahmedabad,Gujarat,N/A,N/A
The Fitness Fuel,"Gulbai Tekra, Ahmedabad, Gujarat",Gulbai Tekra,Ahmedabad,Gujarat,N/A,N/A
The Club Gym,"Paldi, Ahmedabad, Gujarat",Paldi,Ahmedabad,Gujarat,N/A,N/A
Life Fitness Gym - Paldi,"Paldi, Ahmedabad, Gujarat",Paldi,Ahmedabad,Gujarat,N/A,N/A
Yoga Center,"Paldi, Ahmedabad, Gujarat",Paldi,Ahmedabad,Gujarat,N/A,N/A
Riverfront Cycle Stand,"Ashram Road, Ahmedabad, Gujarat",Ashram Road,Ahmedabad,Gujarat,N/A,N/A
Universal Health Club,"Jamalpur, Ahmedabad, Gujarat",Jamalpur,Ahmedabad,Gujarat,N/A,N/A
Zeus Fitness Point,"Navrangpura, Ahmedabad, Gujarat",Navrangpura,Ahmedabad,Gujarat,N/A,N/A
Ronaldo Fitness,"Navrangpura, Ahmedabad, Gujarat",Navrangpura,Ahmedabad,Gujarat,N/A,N/A
Vala S Health Centre And Gym,"Navrangpura, Ahmedabad, Gujarat",Navrangpura,Ahmedabad,Gujarat,N/A,N/A
Figure Line Gym & Health Centre,"Navrangpura, Ahmedabad, Gujarat",Navrangpura,Ahmedabad,Gujarat,N/A,N/A
Gym Nxt Generation,"Navrangpura, Ahmedabad, Gujarat",Navrangpura,Ahmedabad,Gujarat,N/A,N/A
Reiki Centre Anjaliben,"Paldi, Ahmedabad, Gujarat",Paldi,Ahmedabad,Gujarat,N/A,N/A
R.K. Sports & Co.,"Shahpur, Ahmedabad, Gujarat",Shahpur,Ahmedabad,Gujarat,N/A,N/A
Amc Gym,"Navrangpura, Ahmedabad, Gujarat",Navrangpura,Ahmedabad,Gujarat,N/A,N/A
Flexcurve,"Ambavadi, Ahmedabad, Gujarat",Ambavadi,Ahmedabad,Gujarat,N/A,N/A
Ami's It Figures Fast Fun Fitness,"Ambavadi, Ahmedabad, Gujarat",Ambavadi,Ahmedabad,Gujarat,N/A,N/A
Indo Power Control,"Manek Chowk, Ahmedabad, Gujarat",Manek Chowk,Ahmedabad,Gujarat,N/A,N/A
Sardar Patel Stadium Vyayam Shala,"Navrangpura, Ahmedabad, Gujarat",Navrangpura,Ahmedabad,Gujarat,N/A,N/A
Sardar Patel Municipalty Gym,"Navrangpura, Ahmedabad, Gujarat",Navrangpura,Ahmedabad,Gujarat,N/A,N/A
Ms Cycle Works And Stores,"Relief Road, Ahmedabad, Gujarat",Relief Road,Ahmedabad,Gujarat,N/A,N/A
Jaymik Traders,"Ratan Pol, Ahmedabad, Gujarat",Ratan Pol,Ahmedabad,Gujarat,N/A,N/A
Shivam Sales,"Manek Chowk, Ahmedabad, Gujarat",Manek Chowk,Ahmedabad,Gujarat,N/A,N/A
Ashok Malam Patti,"Jamalpur, Ahmedabad, Gujarat",Jamalpur,Ahmedabad,Gujarat,N/A,N/A
Monopol Hair Stylist And Wig Vig Specialist,"Usmanpura, Ahmedabad, Gujarat",Usmanpura,Ahmedabad,Gujarat,N/A,N/A
Modi's Wellness Center,"Manek Chowk, Ahmedabad, Gujarat",Manek Chowk,Ahmedabad,Gujarat,N/A,N/A
Wellness Space,"Navrangpura, Ahmedabad, Gujarat",Navrangpura,Ahmedabad,Gujarat,N/A,N/A
Ezeeslim,"Paldi, Ahmedabad, Gujarat",Paldi,Ahmedabad,Gujarat,N/A,N/A
Maitri Nutrition Center,"Paldi, Ahmedabad, Gujarat",Paldi,Ahmedabad,Gujarat,N/A,N/A
Ceragem Paldi Krishna,"Paldi, Ahmedabad, Gujarat",Paldi,Ahmedabad,Gujarat,N/A,N/A
Infinity Avengers Gym,"Bhatta, Ahmedabad, Gujarat",Bhatta,Ahmedabad,Gujarat,N/A,N/A
Fitness Gym,"Gita Mandir, Ahmedabad, Gujarat",Gita Mandir,Ahmedabad,Gujarat,N/A,N/A
Ganga Spa,"Navrangpura, Ahmedabad, Gujarat",Navrangpura,Ahmedabad,Gujarat,N/A,N/A
Infinity Avengers Gym Pvt.Ltd,"Ambawadi, Ahmedabad, Gujarat",Ambawadi,Ahmedabad,Gujarat,N/A,N/A
Municipal Arogya Bhavan,"Astodia, Ahmedabad, Gujarat",Astodia,Ahmedabad,Gujarat,N/A,N/A
Bodycare Health Centre,"Paldi, Ahmedabad, Gujarat",Paldi,Ahmedabad,Gujarat,N/A,N/A
Ld & M.G. Science Gym Khana,"Navrangpura, Ahmedabad, Gujarat",Navrangpura,Ahmedabad,Gujarat,N/A,N/A
First Flight Courier Limited,"Shahpur, Ahmedabad, Gujarat",Shahpur,Ahmedabad,Gujarat,N/A,N/A
Saga Fitness 2.0,"Navrangpura, Ahmedabad, Gujarat",Navrangpura,Ahmedabad,Gujarat,N/A,N/A
7 Star Gym,"Navrangpura, Ahmedabad, Gujarat",Navrangpura,Ahmedabad,Gujarat,N/A,N/A
River Front Walkway Staircase No 15,"Tavdipura, Ahmedabad, Gujarat",Tavdipura,Ahmedabad,Gujarat,N/A,N/A
Hindu Samrajya Sena Sanchalit Vyayam Shala,"Ashram Road, Ahmedabad, Gujarat",Ashram Road,Ahmedabad,Gujarat,N/A,N/A
Charly Health Club,"Jamalpur, Ahmedabad, Gujarat",Jamalpur,Ahmedabad,Gujarat,N/A,N/A
Shree Tirth Wellness,"Navrangpura, Ahmedabad, Gujarat",Navrangpura,Ahmedabad,Gujarat,N/A,N/A
Youthtown Fitness Centre,"Paldi, Ahmedabad, Gujarat",Paldi,Ahmedabad,Gujarat,N/A,N/A
Parlour,"Navrangpura, Ahmedabad, Gujarat",Navrangpura,Ahmedabad,Gujarat,N/A,N/A
Sfw The Gym,"Vasna, Ahmedabad, Gujarat",Vasna,Ahmedabad,Gujarat,N/A,N/A
Silver Life Health Centre,"Ambavadi, Ahmedabad, Gujarat",Ambavadi,Ahmedabad,Gujarat,N/A,N/A
Shakti Provision Stores,"Ambavadi, Ahmedabad, Gujarat",Ambavadi,Ahmedabad,Gujarat,N/A,N/A
Health Plus Gym,"Usmanpura, Ahmedabad, Gujarat",Usmanpura,Ahmedabad,Gujarat,N/A,N/A
Youthtown Gym,"Paldi, Ahmedabad, Gujarat",Paldi,Ahmedabad,Gujarat,N/A,N/A
Gujarat Sports,"Gulbai Tekra, Ahmedabad, Gujarat",Gulbai Tekra,Ahmedabad,Gujarat,N/A,N/A
Healthvision Pvt Ltd,"Ashram Road, Ahmedabad, Gujarat",Ashram Road,Ahmedabad,Gujarat,N/A,N/A
Darpana Academy,"Usmanpura, Ahmedabad, Gujarat",Usmanpura,Ahmedabad,Gujarat,N/A,N/A
Life Fitness Point,"Gulbai Tekra, Ahmedabad, Gujarat",Gulbai Tekra,Ahmedabad,Gujarat,N/A,N/A
Life Fitness Point Gym,"Gulbai Tekra, Ahmedabad, Gujarat",Gulbai Tekra,Ahmedabad,Gujarat,N/A,N/A
Haji Amin Sadruddin Building,"Jamalpur, Ahmedabad, Gujarat",Jamalpur,Ahmedabad,Gujarat,N/A,N/A
A-One Fitness,"Dani Limda, Ahmedabad, Gujarat",Dani Limda,Ahmedabad,Gujarat,N/A,N/A
The Fitness Clinic,"Navrangpura, Ahmedabad, Gujarat",Navrangpura,Ahmedabad,Gujarat,N/A,N/A
Fitformance,"Gulbai Tekra, Ahmedabad, Gujarat",Gulbai Tekra,Ahmedabad,Gujarat,N/A,N/A
Bodyline Health Club,"Navrangpura, Ahmedabad, Gujarat",Navrangpura,Ahmedabad,Gujarat,N/A,N/A
Ultimate Fitness Club(Ufc),"Ambawadi, Ahmedabad, Gujarat",Ambawadi,Ahmedabad,Gujarat,N/A,N/A
Diet Clinic,"Madhupura, Ahmedabad, Gujarat",Madhupura,Ahmedabad,Gujarat,N/A,N/A
Figure Maker Gym And Fitness Club,"Isanpur, Ahmedabad, Gujarat",Isanpur,Ahmedabad,Gujarat,N/A,N/A
Figure Maker Gym,"Jamalpur, Ahmedabad, Gujarat",Jamalpur,Ahmedabad,Gujarat,N/A,N/A
Kratos The Gym,"Navjivan, Ahmedabad, Gujarat",Navjivan,Ahmedabad,Gujarat,N/A,N/A
Wasna Gym,"Vasna, Ahmedabad, Gujarat",Vasna,Ahmedabad,Gujarat,N/A,N/A
Sabbir Gym Trainer,"Navrangpura, Ahmedabad, Gujarat",Navrangpura,Ahmedabad,Gujarat,N/A,N/A
Mission Health,"Vasna, Ahmedabad, Gujarat",Vasna,Ahmedabad,Gujarat,N/A,N/A
Fortune Sports,"Kalupur, Ahmedabad, Gujarat",Kalupur,Ahmedabad,Gujarat,N/A,N/A
Perfect Gym,"Ambavadi, Ahmedabad, Gujarat",Ambavadi,Ahmedabad,Gujarat,N/A,N/A
Ultra Fitness Gym,"Paldi, Ahmedabad, Gujarat",Paldi,Ahmedabad,Gujarat,N/A,N/A
Om Physiotherapy Clinic And Fitness Center,"Navrangpura, Ahmedabad, Gujarat",Navrangpura,Ahmedabad,Gujarat,N/A,N/A
D-Tox Spa,"Dudheshwar, Ahmedabad, Gujarat",Dudheshwar,Ahmedabad,Gujarat,N/A,N/A
Parv's Ar Fitness Centre,"Shahibagh, Ahmedabad, Gujarat",Shahibagh,Ahmedabad,Gujarat,N/A,N/A
Eka Life,"Gita Mandir, Ahmedabad, Gujarat",Gita Mandir,Ahmedabad,Gujarat,N/A,N/A
Vyayam Shala,"Kankaria, Ahmedabad, Gujarat",Kankaria,Ahmedabad,Gujarat,N/A,N/A
45 Minutes Fitness,"Dudheshwar, Ahmedabad, Gujarat",Dudheshwar,Ahmedabad,Gujarat,N/A,N/A
Orange Fitness,"Navrangpura, Ahmedabad, Gujarat",Navrangpura,Ahmedabad,Gujarat,N/A,N/A
The Cycle Street,"Navrangpura, Ahmedabad, Gujarat",Navrangpura,Ahmedabad,Gujarat,N/A,N/A
Pro Fitness Memnagar,"Memnagar, Ahmedabad, Gujarat",Memnagar,Ahmedabad,Gujarat,N/A,N/A
Fitness Hub,"Ambavadi, Ahmedabad, Gujarat",Ambavadi,Ahmedabad,Gujarat,N/A,N/A
Kankaria Vyayam Sala,"Kankaria, Ahmedabad, Gujarat",Kankaria,Ahmedabad,Gujarat,N/A,N/A
Weight Loss Center,"Navrangpura, Ahmedabad, Gujarat",Navrangpura,Ahmedabad,Gujarat,N/A,N/A
Professors' Colony,"Navrangpura, Ahmedabad, Gujarat",Navrangpura,Ahmedabad,Gujarat,N/A,N/A
Fitness Mark Health Club,"Ashram Road, Ahmedabad, Gujarat",Ashram Road,Ahmedabad,Gujarat,N/A,N/A
Sawajraj Gym,"Kankaria, Ahmedabad, Gujarat",Kankaria,Ahmedabad,Gujarat,N/A,N/A
Fitness Home,"Vastrapur, Ahmedabad, Gujarat",Vastrapur,Ahmedabad,Gujarat,N/A,N/A
Fitness Battalion The Gym,"Kankaria, Ahmedabad, Gujarat",Kankaria,Ahmedabad,Gujarat,N/A,N/A
Club One Fitness Gym,"Maninagar, Ahmedabad, Gujarat",Maninagar,Ahmedabad,Gujarat,N/A,N/A
Rockstar Gym,"Shah E Alam Roja, Ahmedabad, Gujarat",Shah E Alam Roja,Ahmedabad,Gujarat,N/A,N/A
Perfect Gym & Fitness,"Shahibagh, Ahmedabad, Gujarat",Shahibagh,Ahmedabad,Gujarat,N/A,N/A
Haven Spa Only Ladies,"Vastrapur, Ahmedabad, Gujarat",Vastrapur,Ahmedabad,Gujarat,N/A,N/A
Intensity Beyond Fitness,"Ashram Road, Ahmedabad, Gujarat",Ashram Road,Ahmedabad,Gujarat,N/A,N/A
Iscon Fitness Centre,"Vastrapur, Ahmedabad, Gujarat",Vastrapur,Ahmedabad,Gujarat,N/A,N/A
Conquer Wellness Gym,"Kankaria, Ahmedabad, Gujarat",Kankaria,Ahmedabad,Gujarat,N/A,N/A
"Alhuda Society,","Shah E Alam Roja, Ahmedabad, Gujarat",Shah E Alam Roja,Ahmedabad,Gujarat,N/A,N/A
Unique Fitness World,"Vastrapur, Ahmedabad, Gujarat",Vastrapur,Ahmedabad,Gujarat,N/A,N/A
Sfw The Gym-Maninagar,"Kankaria, Ahmedabad, Gujarat",Kankaria,Ahmedabad,Gujarat,N/A,N/A
Zeri's Mask2 Fitness Studio,"Ashram Road, Ahmedabad, Gujarat",Ashram Road,Ahmedabad,Gujarat,N/A,N/A
Herbalife Satellite,"Satellite, Ahmedabad, Gujarat",Satellite,Ahmedabad,Gujarat,N/A,N/A
Ceragem Center Shahibag,"Shahibagh, Ahmedabad, Gujarat",Shahibagh,Ahmedabad,Gujarat,N/A,N/A
Pulkit Nutrition,"Mani Nagar, Ahmedabad, Gujarat",Mani Nagar,Ahmedabad,Gujarat,N/A,N/A
Niharika Bunglows,"Vastrapur, Ahmedabad, Gujarat",Vastrapur,Ahmedabad,Gujarat,N/A,N/A
Fitness Mark - The Heath Centre,"Ashram Road, Ahmedabad, Gujarat",Ashram Road,Ahmedabad,Gujarat,N/A,N/A
Fitness Mark,"Ashram Road, Ahmedabad, Gujarat",Ashram Road,Ahmedabad,Gujarat,N/A,N/A
Vivazz Fitness Studio,"Ashram Road, Ahmedabad, Gujarat",Ashram Road,Ahmedabad,Gujarat,N/A,N/A
Jaykrishna Shah Healthycare,"Mani Nagar, Ahmedabad, Gujarat",Mani Nagar,Ahmedabad,Gujarat,N/A,N/A
Shakti Surgical & Fitness,"Memnagar, Ahmedabad, Gujarat",Memnagar,Ahmedabad,Gujarat,N/A,N/A
Sky Shop,"Girdhar Nagar, Ahmedabad, Gujarat",Girdhar Nagar,Ahmedabad,Gujarat,N/A,N/A
The Little Gym,"Subhash Bridge, Ahmedabad, Gujarat",Subhash Bridge,Ahmedabad,Gujarat,N/A,N/A
Shree Ramkrishna Seva Samiti,"Mani Nagar, Ahmedabad, Gujarat",Mani Nagar,Ahmedabad,Gujarat,N/A,N/A
Scorpions Gym & Toning Centre,"Mani Nagar, Ahmedabad, Gujarat",Mani Nagar,Ahmedabad,Gujarat,N/A,N/A
Aero Fit Studio,"Memnagar, Ahmedabad, Gujarat",Memnagar,Ahmedabad,Gujarat,N/A,N/A
Powermax Fitness Shopee,"Satellite, Ahmedabad, Gujarat",Satellite,Ahmedabad,Gujarat,N/A,N/A
Ganesh Emporium,"Memnagar, Ahmedabad, Gujarat",Memnagar,Ahmedabad,Gujarat,N/A,N/A
Urban Bodybuilder,"Memnagar, Ahmedabad, Gujarat",Memnagar,Ahmedabad,Gujarat,N/A,N/A
Herbalife Keshavbaug,"Vastrapur, Ahmedabad, Gujarat",Vastrapur,Ahmedabad,Gujarat,N/A,N/A
Universal Gym And Fitness Center,"Nava Vadaj, Ahmedabad, Gujarat",Nava Vadaj,Ahmedabad,Gujarat,N/A,N/A
Sfw The Gym - Satellite,"Shyamal, Ahmedabad, Gujarat",Shyamal,Ahmedabad,Gujarat,N/A,N/A
Student Activity Block,"Vastrapur, Ahmedabad, Gujarat",Vastrapur,Ahmedabad,Gujarat,N/A,N/A
Nbees The Zumba Fitness,"Maninagar, Ahmedabad, Gujarat",Maninagar,Ahmedabad,Gujarat,N/A,N/A
Raaree Health Club,"Shahibagh, Ahmedabad, Gujarat",Shahibagh,Ahmedabad,Gujarat,N/A,N/A
Fitness Regime By Nirali Shah,"Satellite, Ahmedabad, Gujarat",Satellite,Ahmedabad,Gujarat,N/A,N/A
Power Plus Health Club,"Satellite, Ahmedabad, Gujarat",Satellite,Ahmedabad,Gujarat,N/A,N/A
P N Health Club Equipments,"Satellite, Ahmedabad, Gujarat",Satellite,Ahmedabad,Gujarat,N/A,N/A
Krishna Beauty Parlour,"Narayan Nagar, Ahmedabad, Gujarat",Narayan Nagar,Ahmedabad,Gujarat,N/A,N/A
Exhale Yoga School,"Vastrapur, Ahmedabad, Gujarat",Vastrapur,Ahmedabad,Gujarat,N/A,N/A
Vshred The Gym,"Maninagar, Ahmedabad, Gujarat",Maninagar,Ahmedabad,Gujarat,N/A,N/A
Activelife Medical Gym & Physiotherapy,"Shahibagh, Ahmedabad, Gujarat",Shahibagh,Ahmedabad,Gujarat,N/A,N/A
Powerzone Gym And Health Centre,"Kankaria, Ahmedabad, Gujarat",Kankaria,Ahmedabad,Gujarat,N/A,N/A
Hellocity Gym,"Satellite, Ahmedabad, Gujarat",Satellite,Ahmedabad,Gujarat,N/A,N/A
Pro Take Action Mma,"Satellite, Ahmedabad, Gujarat",Satellite,Ahmedabad,Gujarat,N/A,N/A
Silver Life Health Center,"Nava Vadaj, Ahmedabad, Gujarat",Nava Vadaj,Ahmedabad,Gujarat,N/A,N/A
Prasana Slimming Centre,"Nava Vadaj, Ahmedabad, Gujarat",Nava Vadaj,Ahmedabad,Gujarat,N/A,N/A
Barbarian Gym,"Memnagar, Ahmedabad, Gujarat",Memnagar,Ahmedabad,Gujarat,N/A,N/A
Blackk Traxx - The Fittnasium,"Shyamal, Ahmedabad, Gujarat",Shyamal,Ahmedabad,Gujarat,N/A,N/A
Fitness Zone,"Rakhial, Ahmedabad, Gujarat",Rakhial,Ahmedabad,Gujarat,N/A,N/A
Home Fitness Direct,"Jodhpur, Ahmedabad, Gujarat",Jodhpur,Ahmedabad,Gujarat,N/A,N/A
Popular Wheeler,"Vasna, Ahmedabad, Gujarat",Vasna,Ahmedabad,Gujarat,N/A,N/A
The Silver Life Gym,"Nava Vadaj, Ahmedabad, Gujarat",Nava Vadaj,Ahmedabad,Gujarat,N/A,N/A
Fitness Force,"Nava Vadaj, Ahmedabad, Gujarat",Nava Vadaj,Ahmedabad,Gujarat,N/A,N/A
Omega Fitness,"Vastrapur, Ahmedabad, Gujarat",Vastrapur,Ahmedabad,Gujarat,N/A,N/A
Gamca Ahmedabad,"Vastrapur, Ahmedabad, Gujarat",Vastrapur,Ahmedabad,Gujarat,N/A,N/A
Fitness Equipments,"Satellite, Ahmedabad, Gujarat",Satellite,Ahmedabad,Gujarat,N/A,N/A
Krantivir Rajguru Vyayamshala,"Kankaria, Ahmedabad, Gujarat",Kankaria,Ahmedabad,Gujarat,N/A,N/A
Life Fitness Club Maninagar,"Maninagar, Ahmedabad, Gujarat",Maninagar,Ahmedabad,Gujarat,N/A,N/A
Ezee Slim Fitness Centre,"Mani Nagar, Ahmedabad, Gujarat",Mani Nagar,Ahmedabad,Gujarat,N/A,N/A
Life Style Gym,"Nava Vadaj, Ahmedabad, Gujarat",Nava Vadaj,Ahmedabad,Gujarat,N/A,N/A
Charly Fitness,"Mani Nagar, Ahmedabad, Gujarat",Mani Nagar,Ahmedabad,Gujarat,N/A,N/A
Nugen Quantum Fit,"Vejalpur, Ahmedabad, Gujarat",Vejalpur,Ahmedabad,Gujarat,N/A,N/A
Akshay's Gym,"Shahibagh, Ahmedabad, Gujarat",Shahibagh,Ahmedabad,Gujarat,N/A,N/A
Mertoflex Gym,"Shahibagh, Ahmedabad, Gujarat",Shahibagh,Ahmedabad,Gujarat,N/A,N/A
Plutus Fitness & Gym,"Shyamal, Ahmedabad, Gujarat",Shyamal,Ahmedabad,Gujarat,N/A,N/A
Maninagar Vyayam Vidyalaya,"Kankaria, Ahmedabad, Gujarat",Kankaria,Ahmedabad,Gujarat,N/A,N/A
Herbalife Syamal,"Vejalpur, Ahmedabad, Gujarat",Vejalpur,Ahmedabad,Gujarat,N/A,N/A
Rock Star Gym World,"Kankaria, Ahmedabad, Gujarat",Kankaria,Ahmedabad,Gujarat,N/A,N/A
Power Zone,"Kankaria, Ahmedabad, Gujarat",Kankaria,Ahmedabad,Gujarat,N/A,N/A
Stripes N Sollids,"Kankaria, Ahmedabad, Gujarat",Kankaria,Ahmedabad,Gujarat,N/A,N/A
Peak Physique,"Shahibagh, Ahmedabad, Gujarat",Shahibagh,Ahmedabad,Gujarat,N/A,N/A
Figure,"Shahibagh, Ahmedabad, Gujarat",Shahibagh,Ahmedabad,Gujarat,N/A,N/A
Nehas Fitness Studio,"Satellite, Ahmedabad, Gujarat",Satellite,Ahmedabad,Gujarat,N/A,N/A
INFERNO INFOSEC,"Maninagar, Ahmedabad, Gujarat",Maninagar,Ahmedabad,Gujarat,N/A,N/A
City Gymkhana,"Shahibagh, Ahmedabad, Gujarat",Shahibagh,Ahmedabad,Gujarat,N/A,N/A
Gr Fitness - Maninagar,"Mani Nagar, Ahmedabad, Gujarat",Mani Nagar,Ahmedabad,Gujarat,N/A,N/A
Jashubhai Patel Swmming Pool & Gym,"Nava Vadaj, Ahmedabad, Gujarat",Nava Vadaj,Ahmedabad,Gujarat,N/A,N/A
Dolphin Health And Fitness,"Shahibagh, Ahmedabad, Gujarat",Shahibagh,Ahmedabad,Gujarat,N/A,N/A
Your Fitness Club,"Satellite, Ahmedabad, Gujarat",Satellite,Ahmedabad,Gujarat,N/A,N/A
Radhe Shayam Garba Classes,"Isanpur, Ahmedabad, Gujarat",Isanpur,Ahmedabad,Gujarat,N/A,N/A
Sparadise Spa,"Nava Vadaj, Ahmedabad, Gujarat",Nava Vadaj,Ahmedabad,Gujarat,N/A,N/A
Eazeeslim,"Mani Nagar, Ahmedabad, Gujarat",Mani Nagar,Ahmedabad,Gujarat,N/A,N/A
Buy Herbalife Products And Weight Loss Center,"Vastrapur, Ahmedabad, Gujarat",Vastrapur,Ahmedabad,Gujarat,N/A,N/A
She Fitness Centre,"Vastrapur, Ahmedabad, Gujarat",Vastrapur,Ahmedabad,Gujarat,N/A,N/A
Eye Motivation: Maulin Pandya,"Gurukul, Ahmedabad, Gujarat",Gurukul,Ahmedabad,Gujarat,N/A,N/A
Fitness Battalain The Gym,"Mani Nagar, Ahmedabad, Gujarat",Mani Nagar,Ahmedabad,Gujarat,N/A,N/A
The Gymnasium,"Vastrapur, Ahmedabad, Gujarat",Vastrapur,Ahmedabad,Gujarat,N/A,N/A
Step 2 Well Fitness Centre,"Shahibagh, Ahmedabad, Gujarat",Shahibagh,Ahmedabad,Gujarat,N/A,N/A
Life Solutions Club,"Vastrapur, Ahmedabad, Gujarat",Vastrapur,Ahmedabad,Gujarat,N/A,N/A
Urban Fitness,"Mani Nagar, Ahmedabad, Gujarat",Mani Nagar,Ahmedabad,Gujarat,N/A,N/A
Santur Positive Energy Centre,"Vastrapur, Ahmedabad, Gujarat",Vastrapur,Ahmedabad,Gujarat,N/A,N/A
Recharge Fitness Centre,"Vejalpur, Ahmedabad, Gujarat",Vejalpur,Ahmedabad,Gujarat,N/A,N/A
Slim N Sane,"Memnagar, Ahmedabad, Gujarat",Memnagar,Ahmedabad,Gujarat,N/A,N/A
Fitness World,"Shyamal, Ahmedabad, Gujarat",Shyamal,Ahmedabad,Gujarat,N/A,N/A
